FENGYUN 1C DEB          
1 37450U 99025EHU 17338.06372609  .00001449  00000-0  10674-2 0  9997
2 37450  97.6903 289.5180 0333638 113.1212 250.5468 13.73231213458558
